COSMOS 2251 DEB         
1 37960U 93036BPK 17344.66413193  .00000077  00000-0  50599-4 0  9994
2 37960  74.0607 222.5705 0272243 214.0981 144.2405 13.99944077365893
